OBJECT_NAME,OBJECT_ID,EPOCH,MEAN_MOTION,ECCENTRICITY,INCLINATION,RA_OF_ASC_NODE,ARG_OF_PERICENTER,MEAN_ANOMALY,EPHEMERIS_TYPE,CLASSIFICATION_TYPE,NORAD_CAT_ID,ELEMENT_SET_NO,REV_AT_EPOCH,BSTAR,MEAN_MOTION_DOT,MEAN_MOTION_DDOT
DUBAISAT-1,2009-041B,2026-07-08T22:20:10.558464,14.75160197,.00104149,98.0077,322.9535,8.9680,351.1713,0,U,35682,999,90830,.9509836E-4,.591E-5,0
OCEANSAT-2,2009-051A,2026-07-09T20:39:17.930880,13.99656939,.0016993,98.2318,175.4485,168.9582,191.1961,0,U,35931,999,88250,-.88695E-4,-.167E-5,0
WORLDVIEW-2 (WV-2),2009-055A,2026-07-09T18:42:04.542336,14.37905981,.000508,98.4758,263.9210,142.9156,217.2382,0,U,35946,999,87889,.29072E-4,.44E-6,0
SMOS,2009-059A,2026-07-08T22:35:57.420384,14.39733454,.00011361,98.4428,16.9579,94.8218,265.3100,0,U,36036,999,87658,.66309277E-4,.164E-5,0
YAOGAN-7,2009-069A,2026-07-08T14:48:32.591232,14.78031471,.00239353,98.0044,75.3492,333.3807,26.6172,0,U,36110,999,89279,.54067378E-4,.339E-5,0
TANDEM-X,2010-030A,2026-07-07T11:29:58.986816,15.19154052,.0001887,97.4457,195.8973,94.3019,265.8431,0,U,36605,999,88972,.21566E-4,.386E-5,0
CARTOSAT-2B,2010-035A,2026-07-09T20:58:35.999328,14.78611521,.0012446,97.9943,241.2773,114.4233,245.8278,0,U,36795,999,86320,-.14781E-4,-.161E-5,0
YAOGAN-10,2010-038A,2026-07-09T20:36:06.628320,14.85419769,.0001732,97.8978,214.0817,83.2898,18.9846,0,U,36834,999,86057,.14438E-3,.119E-4,0
COSMO-SKYMED 4,2010-060A,2026-07-09T20:34:23.909952,14.82145290,.0001481,97.8897,14.1292,84.5478,275.5904,0,U,37216,999,84792,.40122E-4,.267E-5,0
RESOURCESAT-2,2011-015A,2026-07-09T18:03:17.396352,14.21605126,.0011268,98.7634,258.0371,186.4486,173.6548,0,U,37387,999,78938,.21523E-4,.3E-7,0
HAIYANG-2A,2011-043A,2026-07-09T19:55:29.592768,13.73551708,.0003318,99.3402,192.9919,43.9053,316.2359,0,U,37781,999,74976,.31915E-4,-.14E-6,0
RASAT,2011-044D,2026-07-09T21:09:07.782912,14.68189581,.0021754,98.0573,281.9326,118.4908,350.9963,0,U,37791,999,79651,.62909E-4,.314E-5,0
SRMSAT,2011-058D,2026-07-09T14:59:25.033056,14.11580289,.0011875,19.9720,283.6652,90.4763,307.0339,0,U,37841,999,76099,.48802E-4,.355E-5,0
PLEIADES 1A,2011-076F,2026-07-09T20:20:01.053024,14.58544830,.0001734,98.1967,265.6451,82.3845,54.2142,0,U,38012,999,77529,.25707E-4,.74E-6,0
ZIYUAN 1-02C (ZY 1-02C),2011-079A,2026-07-09T21:35:47.831424,14.38232107,.0005329,98.4061,257.7331,233.1368,215.5794,0,U,38038,999,76247,.14323E-4,0,0
ARIRANG-3 (KOMPSAT-3),2012-025B,2026-07-09T19:40:42.649248,14.62226205,.0006507,98.1182,147.8909,52.7596,307.4198,0,U,38338,999,75465,.63294E-4,.272E-5,0
EXACTVIEW-1 (ADS-1B),2012-039C,2026-07-09T06:55:25.078080,14.24991160,.00119328,98.9798,308.1803,106.9299,253.3189,0,U,38709,999,72585,.48059452E-4,.66E-6,0
SPOT 6,2012-047A,2026-07-09T20:04:39.972000,14.58536886,.0001147,98.2108,257.8795,81.7990,278.3339,0,U,38755,999,73635,.26856E-4,.79E-6,0
PLEIADES 1B,2012-068A,2026-07-09T20:31:25.131072,14.58532191,.0001634,98.1938,265.5943,81.2832,278.8552,0,U,39019,999,72415,.10799E-4,.5E-7,0
GOKTURK 2,2012-073A,2026-07-09T19:09:05.855616,14.75566656,.0000921,97.6820,27.0955,79.9103,280.2211,0,U,39030,999,72784,.10457E-3,.666E-5,0
LANDSAT 8,2013-008A,2026-07-09T19:45:21.584736,14.57109555,.0001358,98.2292,260.6886,93.8169,266.3184,0,U,39084,999,70119,.49866E-4,.179E-5,0
SARAL,2013-009A,2026-07-09T19:19:55.644960,14.32894850,.000137,98.5554,17.0866,181.2570,178.8611,0,U,39086,999,69884,.3652E-4,.56E-6,0
GAOFEN-1,2013-018A,2026-07-09T19:59:25.323072,14.76515541,.0016609,97.9083,262.4398,188.5228,171.5703,0,U,39150,999,71158,.8271E-4,.527E-5,0
VNREDSAT 1,2013-021B,2026-07-09T20:02:31.916832,14.64879098,.0001658,97.9070,243.3810,80.7799,279.3592,0,U,39160,999,70360,-.97436E-5,-.97E-6,0
ARIRANG-5 (KOMPSAT-5),2013-042A,2026-07-09T20:17:20.245344,15.04519879,.0005522,97.6222,17.2279,71.3580,288.8245,0,U,39227,999,70726,.88852E-4,.1184E-4,0
SKYSAT-A,2013-066C,2026-07-09T13:04:14.775744,15.13096648,.0020026,97.3805,239.2292,233.9327,126.0050,0,U,39418,999,69186,.12862E-3,.2223E-4,0
DUBAISAT-2,2013-066D,2026-07-09T20:42:12.597120,15.10349051,.0009788,97.4572,180.4155,322.8276,37.2275,0,U,39419,999,68981,.18739E-3,.3014E-4,0
GPM-CORE,2014-009C,2026-07-09T19:16:23.913984,15.45002483,.0011063,64.9701,232.3580,260.2443,99.7448,0,U,39574,999,70130,.91938E-4,.4108E-4,0
SENTINEL-1A,2014-016A,2026-07-09T20:36:49.494816,14.59199000,.0001443,98.1788,198.0605,86.7689,273.3676,0,U,39634,999,65332,-.20937E-4,-.144E-5,0
KAZEOSAT 1,2014-024A,2026-07-09T20:23:06.615168,14.42035741,.0001283,98.3196,262.7323,81.7786,278.3549,0,U,39731,999,64182,.72614E-5,-.19E-6,0
ALOS-2,2014-029A,2026-07-09T20:43:53.170176,14.79474132,.0001634,97.9220,287.7038,91.0180,269.1219,0,U,39766,999,65493,.86155E-4,.592E-5,0
